[
    {
        "CCSDS_OMM_VERS": "3.0",
        "COMMENT": "GENERATED VIA SPACE-TRACK.ORG API",
        "CREATION_DATE": "2025-02-27T06:26:16",
        "ORIGINATOR": "18 SPCS",
        "OBJECT_NAME": "GALILEO 28 (224)",
        "OBJECT_ID": "2021-116B",
        "CENTER_NAME": "EARTH",
        "REF_FRAME": "TEME",
        "TIME_SYSTEM": "UTC",
        "MEAN_ELEMENT_THEORY": "SGP4",
        "EPOCH": "2025-02-26T21:55:11.000064",
        "MEAN_MOTION": "1.70475239",
        "ECCENTRICITY": "0.00020050",
        "INCLINATION": "57.2805",
        "RA_OF_ASC_NODE": "354.5024",
        "ARG_OF_PERICENTER": "291.9057",
        "MEAN_ANOMALY": "214.5004",
        "EPHEMERIS_TYPE": "0",
        "CLASSIFICATION_TYPE": "U",
        "NORAD_CAT_ID": "49810",
        "ELEMENT_SET_NO": "999",
        "REV_AT_EPOCH": "2009",
        "BSTAR": "0.00000000000000",
        "MEAN_MOTION_DOT": "-0.00000080",
        "MEAN_MOTION_DDOT": "0.0000000000000",
        "SEMIMAJOR_AXIS": "29600.177",
        "PERIOD": "844.697",
        "APOAPSIS": "23227.976",
        "PERIAPSIS": "23216.107",
        "OBJECT_TYPE": "PAYLOAD",
        "RCS_SIZE": "LARGE",
        "COUNTRY_CODE": "ESA",
        "LAUNCH_DATE": "2021-12-05",
        "SITE": "FRGUI",
        "DECAY_DATE": null,
        "FILE": "4653462",
        "GP_ID": "281803710",
        "TLE_LINE0": "0 GALILEO 28 (224)",
        "TLE_LINE1": "1 49810U 21116B   25057.91332176 -.00000080  00000-0  00000+0 0  9992",
        "TLE_LINE2": "2 49810  57.2805 354.5024 0002005 291.9057 214.5004  1.70475239 20099"
    }
]